ADRAS-J                 
1 58992U 24034A   24193.55433032  .00003984  00000+0  37026-3 0  9994
2 58992  98.2137 167.6838 0042507 331.4058  28.4829 14.94310085 21502
